#aV2016  6 22  0  0  0.00000000     288 DD+AD WGS84 FIT  NGA
## 1902 259200.00000000   300.00000000 57561 0.0000000000000
+   31     1  2  3  5  6  7  8  9 10 11 12 13 14 15 16 17 18
+         19 20 21 22 23 24 25 26 27 28 29 30 31 32  0  0  0
+          0  0  0  0  0  0  0  0  0  0  0  0  0  0  0  0  0
+          0  0  0  0  0  0  0  0  0  0  0  0  0  0  0  0  0
+          0  0  0  0  0  0  0  0  0  0  0  0  0  0  0  0  0
++         2  2  2  2  2  2  2  2  2  2  2  2  2  2  2  2  2
++         2  2  2  2  2  2  2  2  2  2  2  2  2  2  0  0  0
++         0  0  0  0  0  0  0  0  0  0  0  0  0  0  0  0  0
++         0  0  0  0  0  0  0  0  0  0  0  0  0  0  0  0  0
++         0  0  0  0  0  0  0  0  0  0  0  0  0  0  0  0  0
%c cc cc ccc ccc cccc cccc cccc cccc ccccc ccccc ccccc ccccc
%c cc cc ccc ccc cccc cccc cccc cccc ccccc ccccc ccccc ccccc
%f  0.0000000  0.000000000  0.00000000000  0.000000000000000
%f  0.0000000  0.000000000  0.00000000000  0.000000000000000
%i    0    0    0    0      0      0      0      0         0
%i    0    0    0    0      0      0      0      0         0
/*      NGA, ST. LOUIS,MO.                                  
/*   EPHEMERIS COMPUTED FROM 2 DAYS OF DATA                 
/*   EPOCHA v2.4 SMOOTHER                                   
/*   G1762  SATAF SATAPC                                    
*  2016  6 22  0 25  0.00000000
P  1  20125.437867  14205.421917 -10320.824132     24.413801                    
V  1 -12927.735289  -1996.682797 -27948.312406      0.012520                    
P  2    -42.148041 -16215.563778  21524.551542    583.783537                    
V  2  25421.748241   6811.331727   4902.629095     -0.026658                    
P  3  13422.257066  18774.748700  13151.689759    -69.358495                    
V  3   1220.204416  16807.150438 -25251.162560     -0.032950                    
P  5  -3028.107825 -25990.536823   3817.854573   -111.045711                    
V  5   4427.398538   4095.227371  31048.330259      0.029048                    
P  6  15911.589500  -8936.759225  19312.343328    208.105684                    
V  6  22917.910337   8701.371020 -14860.831426      0.053559                    
P  7  25735.431255   5451.634377  -4880.200227    446.940997                    
V  7   5200.607232   4208.908561  30814.927602     -0.024394                    
P  8   3218.849846  16414.512446 -20574.280168    -39.928929                    
V  8 -19994.716968  17008.952493  10455.192985     -0.014042                    
P  9  19902.496196  -1386.437737  17527.955402    153.150638                    
V  9 -15266.111753  16342.186215  18595.386346      0.072690                    
P 10 -12264.282011  11464.817934 -20544.163066    -50.447655                    
V 10  -6484.545145 -25359.712409 -10337.996573     -0.079769                    
P 11  16205.100509  12838.108354 -17250.574723   -652.693435                    
V 11 -20893.586348   3807.503806 -17333.992431     -0.024271                    
P 12 -10655.084727 -21836.470350  10842.962613    383.376613                    
V 12   -659.217050 -13928.826504 -28137.358375      0.010175                    
P 13   6131.900381 -19110.475942 -17564.157676    -26.287365                    
V 13  18730.548029 -11623.037294  19237.988607     -0.025014                    
P 14 -19697.992097  17524.609513   2673.231139    -20.619617                    
V 14  -4169.530320   -348.746585 -31687.667433     -0.020058                    
P 15  -7052.694821 -14970.325061 -20844.823622   -316.277165                    
V 15  19179.369314 -18115.204043   6910.293325     -0.015911                    
P 16    585.259256  25930.631445   4554.468590     -9.366465                    
V 16  -2961.340383  -5610.842050  31960.554560      0.024095                    
P 17  21666.651688 -14687.325630  -3538.221732   -204.018142                    
V 17  -2236.223542   5029.678484 -31809.671223      0.000349                    
P 18 -16340.881493  -2237.018829 -20312.762267    528.926447                    
V 18  -5688.147720 -26551.044113   7056.199873      0.039356                    
P 19  18721.608353 -18311.744175   5222.376421   -525.380917                    
V 19   6751.349098  -2433.392363 -30896.825299      0.001764                    
P 20 -13818.932174 -20584.040504  -9623.795047    419.845280                    
V 20   -173.287708 -12582.953463  27628.910554      0.022651                    
P 21 -25547.290370  -2517.760001  -6512.029593   -526.469014                    
V 21  -7900.865170  -5815.944597  29581.393400     -0.010306                    
P 22  10207.537743  23877.614053   5510.921914    314.528028                    
V 22  -2213.632060   7516.230803 -29892.036493     -0.087902                    
P 23  14409.965610   7616.494547  21232.162814   -179.108363                    
V 23 -19342.297043  18102.446951   6253.758120     -0.015645                    
P 24 -17550.058026 -15112.978483 -13232.509737    -18.961828                    
V 24  16639.501948   2494.402124 -24833.084634     -0.005650                    
P 25 -15240.430912 -10776.724429  18843.739427   -194.603639                    
V 25  -3899.230242 -23790.432223 -16460.245711     -0.070119                    
P 26  -5271.000800  21860.237391  14092.830222   -402.603534                    
V 26  -6012.382853 -17029.804813  24201.126161     -0.109251                    
P 27  -7777.370796  20632.564265 -14717.958939    106.175918                    
V 27 -15123.781414  11117.496243  23801.399061      0.042538                    
P 28  12663.198970  -9002.743016 -20908.629685    531.849362                    
V 28   4356.237297  27625.597696  -9031.252736      0.027436                    
P 29 -17944.737048  -2364.294441  19425.426986    656.462068                    
V 29  18504.272439 -16288.603453  15154.543053     -0.003607                    
P 30  22761.355857  -1395.105906 -13710.033346    134.714747                    
V 30  15269.108703   8615.890483  24379.306072      0.026511                    
P 31 -13204.220450  10334.274205  20785.803117    262.715381                    
V 31 -24276.633298  -9439.781597 -10427.078397     -0.019433                    
P 32 -20765.258232  16313.400554  -2750.779130    -29.913505                    
V 32    671.214336  -4475.321198 -31482.564414     -0.085726                    
EOF
